start=new Date('2023-01-23T00:00:00.000Z').valueOf();
sats=[{"FILE":"3757359","MEAN_ANOMALY":"280.3959","MEAN_MOTION":"15.08847677","GP_ID":"223581907","ECCENTRICITY":"0.00012320","ELEMENT_SET_NO":"999","ARG_OF_PERICENTER":"79.7172","BSTAR":"0.00016769000000","LAUNCH_DATE":"2022-05-18","REF_FRAME":"TEME","NORAD_CAT_ID":"52661","CLASSIFICATION_TYPE":"U","MEAN_MOTION_DDOT":"0.0000000000000","CENTER_NAME":"EARTH","INCLINATION":"53.2163","MEAN_ELEMENT_THEORY":"SGP4","TLE_LINE2":"2 52661  53.2163 244.2582 0001232  79.7172 280.3959 15.08847677 38527","SEMIMAJOR_AXIS":"6917.857","EPOCH":"2023-01-21T21:50:37.004928","RCS_SIZE":"LARGE","PERIOD":"95.437","RA_OF_ASC_NODE":"244.2582","COUNTRY_CODE":"US","REV_AT_EPOCH":"3852","OBJECT_ID":"2022-053F","PERIAPSIS":"538.870","APOAPSIS":"540.574","EPHEMERIS_TYPE":"0","SITE":"AFETR","MEAN_MOTION_DOT":"0.00002382","DECAY_DATE":null,"TIME_SYSTEM":"UTC","OBJECT_TYPE":"PAYLOAD","OBJECT_NAME":"STARLINK-4042","TLE_LINE1":"1 52661U 22053F   23021.91015052  .00002382  00000-0  16769-3 0  9990"},{"MEAN_MOTION_DOT":"0.00002210","SITE":"AFETR","EPHEMERIS_TYPE":"0","APOAPSIS":"540.606","DECAY_DATE":null,"TIME_SYSTEM":"UTC","OBJECT_TYPE":"PAYLOAD","TLE_LINE1":"1 52662U 22053G   23022.30022811  .00002210  00000-0  15691-3 0  9999","OBJECT_NAME":"STARLINK-4044","RCS_SIZE":"LARGE","PERIOD":"95.438","RA_OF_ASC_NODE":"242.5117","COUNTRY_CODE":"US","OBJECT_ID":"2022-053G","REV_AT_EPOCH":"3858","PERIAPSIS":"538.934","LAUNCH_DATE":"2022-05-18","BSTAR":"0.00015691000000","ARG_OF_PERICENTER":"76.6313","REF_FRAME":"TEME","NORAD_CAT_ID":"52662","CLASSIFICATION_TYPE":"U","MEAN_MOTION_DDOT":"0.0000000000000","CENTER_NAME":"EARTH","SEMIMAJOR_AXIS":"6917.905","TLE_LINE2":"2 52662  53.2119 242.5117 0001208  76.6313 283.4814 15.08831950 38587","EPOCH":"2023-01-22T07:12:19.708704","MEAN_ELEMENT_THEORY":"SGP4","INCLINATION":"53.2119","FILE":"3757694","GP_ID":"223589139","ECCENTRICITY":"0.00012080","MEAN_MOTION":"15.08831950","MEAN_ANOMALY":"283.4814","ELEMENT_SET_NO":"999"},{"TLE_LINE1":"1 52663U 22053H   23022.29655891  .00008674  00000-0  56236-3 0  9998","OBJECT_NAME":"STARLINK-4037","MEAN_MOTION_DOT":"0.00008674","SITE":"AFETR","EPHEMERIS_TYPE":"0","APOAPSIS":"540.592","TIME_SYSTEM":"UTC","OBJECT_TYPE":"PAYLOAD","DECAY_DATE":null,"COUNTRY_CODE":"US","PERIOD":"95.437","RA_OF_ASC_NODE":"242.5304","PERIAPSIS":"538.882","OBJECT_ID":"2022-053H","REV_AT_EPOCH":"3858","RCS_SIZE":"LARGE","CENTER_NAME":"EARTH","MEAN_MOTION_DDOT":"0.0000000000000","SEMIMAJOR_AXIS":"6917.872","TLE_LINE2":"2 52663  53.2140 242.5304 0001236 101.3996 258.7135 15.08842798 38587","EPOCH":"2023-01-22T07:07:02.689824","MEAN_ELEMENT_THEORY":"SGP4","INCLINATION":"53.2140","REF_FRAME":"TEME","LAUNCH_DATE":"2022-05-18","BSTAR":"0.00056236000000","ARG_OF_PERICENTER":"101.3996","NORAD_CAT_ID":"52663","CLASSIFICATION_TYPE":"U","ELEMENT_SET_NO":"999","GP_ID":"223589148","MEAN_MOTION":"15.08842798","ECCENTRICITY":"0.00012360","MEAN_ANOMALY":"258.7135","FILE":"3757694"},{"NORAD_CAT_ID":"52664","CLASSIFICATION_TYPE":"U","BSTAR":"0.00023543000000","ARG_OF_PERICENTER":"92.8054","LAUNCH_DATE":"2022-05-18","REF_FRAME":"TEME","INCLINATION":"53.2147","MEAN_ELEMENT_THEORY":"SGP4","TLE_LINE2":"2 52664  53.2147 245.4761 0001262  92.8054 267.3083 15.08846804 38481","SEMIMAJOR_AXIS":"6917.860","EPOCH":"2023-01-21T15:23:46.706784","MEAN_MOTION_DDOT":"0.0000000000000","CENTER_NAME":"EARTH","FILE":"3757127","MEAN_ANOMALY":"267.3083","ECCENTRICITY":"0.00012620","GP_ID":"223577127","MEAN_MOTION":"15.08846804","ELEMENT_SET_NO":"999","DECAY_DATE":null,"TIME_SYSTEM":"UTC","OBJECT_TYPE":"PAYLOAD","APOAPSIS":"540.598","EPHEMERIS_TYPE":"0","SITE":"AFETR","MEAN_MOTION_DOT":"0.00003462","OBJECT_NAME":"STARLINK-4070","TLE_LINE1":"1 52664U 22053J   23021.64151281  .00003462  00000-0  23543-3 0  9996","RCS_SIZE":"LARGE","REV_AT_EPOCH":"3848","OBJECT_ID":"2022-053J","PERIAPSIS":"538.852","RA_OF_ASC_NODE":"245.4761","PERIOD":"95.437","COUNTRY_CODE":"US"},{"REF_FRAME":"TEME","LAUNCH_DATE":"2022-05-18","BSTAR":"0.00004468200000","ARG_OF_PERICENTER":"99.3894","CLASSIFICATION_TYPE":"U","NORAD_CAT_ID":"52665","CENTER_NAME":"EARTH","MEAN_MOTION_DDOT":"0.0000000000000","TLE_LINE2":"2 52665  53.2139 240.4937 0001238  99.3894 260.7238 15.08824007 38659","SEMIMAJOR_AXIS":"6917.929","EPOCH":"2023-01-22T17:58:51.057120","MEAN_ELEMENT_THEORY":"SGP4","INCLINATION":"53.2139","FILE":"3758057","ELEMENT_SET_NO":"999","GP_ID":"223597443","ECCENTRICITY":"0.00012380","MEAN_MOTION":"15.08824007","MEAN_ANOMALY":"260.7238","MEAN_MOTION_DOT":"0.00000423","SITE":"AFETR","APOAPSIS":"540.651","EPHEMERIS_TYPE":"0","OBJECT_TYPE":"PAYLOAD","TIME_SYSTEM":"UTC","DECAY_DATE":null,"TLE_LINE1":"1 52665U 22053K   23022.74920205  .00000423  00000-0  44682-4 0  9991","OBJECT_NAME":"STARLINK-4064","RCS_SIZE":"MEDIUM","COUNTRY_CODE":"US","PERIOD":"95.439","RA_OF_ASC_NODE":"240.4937","PERIAPSIS":"538.938","OBJECT_ID":"2022-053K","REV_AT_EPOCH":"3865"},{"ELEMENT_SET_NO":"999","MEAN_ANOMALY":"273.7378","GP_ID":"223589156","ECCENTRICITY":"0.00012230","MEAN_MOTION":"15.08838357","FILE":"3757695","CENTER_NAME":"EARTH","MEAN_MOTION_DDOT":"0.0000000000000","INCLINATION":"53.2139","TLE_LINE2":"2 52666  53.2139 241.9524 0001223  86.3754 273.7378 15.08838357 38600","EPOCH":"2023-01-22T10:12:30.551904","SEMIMAJOR_AXIS":"6917.885","MEAN_ELEMENT_THEORY":"SGP4","REF_FRAME":"TEME","ARG_OF_PERICENTER":"86.3754","BSTAR":"0.00008461800000","LAUNCH_DATE":"2022-05-18","CLASSIFICATION_TYPE":"U","NORAD_CAT_ID":"52666","COUNTRY_CODE":"US","RA_OF_ASC_NODE":"241.9524","PERIOD":"95.438","PERIAPSIS":"538.904","REV_AT_EPOCH":"3860","OBJECT_ID":"2022-053L","RCS_SIZE":"LARGE","OBJECT_NAME":"STARLINK-4079","TLE_LINE1":"1 52666U 22053L   23022.42535361  .00001059  00000-0  84618-4 0  9991","APOAPSIS":"540.596","EPHEMERIS_TYPE":"0","MEAN_MOTION_DOT":"0.00001059","SITE":"AFETR","TIME_SYSTEM":"UTC","OBJECT_TYPE":"PAYLOAD","DECAY_DATE":null},{"TIME_SYSTEM":"UTC","OBJECT_TYPE":"PAYLOAD","DECAY_DATE":null,"SITE":"AFETR","MEAN_MOTION_DOT":"0.00004745","EPHEMERIS_TYPE":"0","APOAPSIS":"540.709","TLE_LINE1":"1 52667U 22053M   23021.35447855  .00004745  00000-0  31601-3 0  9991","OBJECT_NAME":"STARLINK-4076","RCS_SIZE":"LARGE","PERIAPSIS":"538.782","OBJECT_ID":"2022-053M","REV_AT_EPOCH":"3844","COUNTRY_CODE":"US","PERIOD":"95.438","RA_OF_ASC_NODE":"246.7621","NORAD_CAT_ID":"52667","CLASSIFICATION_TYPE":"U","REF_FRAME":"TEME","LAUNCH_DATE":"2022-05-18","ARG_OF_PERICENTER":"103.5568","BSTAR":"0.00031601000000","EPOCH":"2023-01-21T08:30:26.946720","TLE_LINE2":"2 52667  53.2130 246.7621 0001393 103.5568 256.5580 15.08840049 38443","SEMIMAJOR_AXIS":"6917.880","MEAN_ELEMENT_THEORY":"SGP4","INCLINATION":"53.2130","CENTER_NAME":"EARTH","MEAN_MOTION_DDOT":"0.0000000000000","FILE":"3756894","ELEMENT_SET_NO":"999","GP_ID":"223571146","ECCENTRICITY":"0.00013930","MEAN_MOTION":"15.08840049","MEAN_ANOMALY":"256.5580"},{"PERIAPSIS":"538.704","OBJECT_ID":"2022-053N","REV_AT_EPOCH":"3852","COUNTRY_CODE":"US","PERIOD":"95.437","RA_OF_ASC_NODE":"244.3528","RCS_SIZE":"LARGE","TLE_LINE1":"1 52668U 22053N   23021.89175358  .00005984  00000-0  39366-3 0  9999","OBJECT_NAME":"STARLINK-4067","OBJECT_TYPE":"PAYLOAD","TIME_SYSTEM":"UTC","DECAY_DATE":null,"SITE":"AFETR","MEAN_MOTION_DOT":"0.00005984","APOAPSIS":"540.722","EPHEMERIS_TYPE":"0","ELEMENT_SET_NO":"999","ECCENTRICITY":"0.00014580","GP_ID":"223582410","MEAN_MOTION":"15.08850624","MEAN_ANOMALY":"268.8388","FILE":"3757360","TLE_LINE2":"2 52668  53.2113 244.3528 0001458  91.2771 268.8388 15.08850624 38527","MEAN_ELEMENT_THEORY":"SGP4","SEMIMAJOR_AXIS":"6917.848","EPOCH":"2023-01-21T21:24:07.509312","INCLINATION":"53.2113","CENTER_NAME":"EARTH","MEAN_MOTION_DDOT":"0.0000000000000","CLASSIFICATION_TYPE":"U","NORAD_CAT_ID":"52668","REF_FRAME":"TEME","LAUNCH_DATE":"2022-05-18","BSTAR":"0.00039366000000","ARG_OF_PERICENTER":"91.2771"},{"CLASSIFICATION_TYPE":"U","NORAD_CAT_ID":"52669","REF_FRAME":"TEME","LAUNCH_DATE":"2022-05-18","ARG_OF_PERICENTER":"91.4235","BSTAR":"0.00031663000000","SEMIMAJOR_AXIS":"6917.850","TLE_LINE2":"2 52669  53.2115 244.4273 0001241  91.4235 268.6899 15.08849900 38514","EPOCH":"2023-01-21T20:57:37.485792","MEAN_ELEMENT_THEORY":"SGP4","INCLINATION":"53.2115","CENTER_NAME":"EARTH","MEAN_MOTION_DDOT":"0.0000000000000","FILE":"3757130","ELEMENT_SET_NO":"999","GP_ID":"223577036","ECCENTRICITY":"0.00012410","MEAN_MOTION":"15.08849900","MEAN_ANOMALY":"268.6899","OBJECT_TYPE":"PAYLOAD","TIME_SYSTEM":"UTC","DECAY_DATE":null,"MEAN_MOTION_DOT":"0.00004756","SITE":"AFETR","APOAPSIS":"540.574","EPHEMERIS_TYPE":"0","TLE_LINE1":"1 52669U 22053P   23021.87335053  .00004756  00000-0  31663-3 0  9996","OBJECT_NAME":"STARLINK-3972","RCS_SIZE":"LARGE","PERIAPSIS":"538.857","OBJECT_ID":"2022-053P","REV_AT_EPOCH":"3851","COUNTRY_CODE":"US","PERIOD":"95.437","RA_OF_ASC_NODE":"244.4273"},{"OBJECT_NAME":"STARLINK-4075","TLE_LINE1":"1 52670U 22053Q   23021.88902793  .00003998  00000-0  26909-3 0  9994","DECAY_DATE":null,"TIME_SYSTEM":"UTC","OBJECT_TYPE":"PAYLOAD","EPHEMERIS_TYPE":"0","APOAPSIS":"540.682","SITE":"AFETR","MEAN_MOTION_DOT":"0.00003998","REV_AT_EPOCH":"3808","OBJECT_ID":"2022-053Q","PERIAPSIS":"538.749","RA_OF_ASC_NODE":"244.3544","PERIOD":"95.437","COUNTRY_CODE":"US","RCS_SIZE":"LARGE","INCLINATION":"53.2134","SEMIMAJOR_AXIS":"6917.850","TLE_LINE2":"2 52670  53.2134 244.3544 0001397  88.2245 271.8907 15.08849912 38085","EPOCH":"2023-01-21T21:20:12.013152","MEAN_ELEMENT_THEORY":"SGP4","MEAN_MOTION_DDOT":"0.0000000000000","CENTER_NAME":"EARTH","NORAD_CAT_ID":"52670","CLASSIFICATION_TYPE":"U","ARG_OF_PERICENTER":"88.2245","BSTAR":"0.00026909000000","LAUNCH_DATE":"2022-05-18","REF_FRAME":"TEME","MEAN_ANOMALY":"271.8907","ECCENTRICITY":"0.00013970","GP_ID":"223581925","MEAN_MOTION":"15.08849912","ELEMENT_SET_NO":"999","FILE":"3757361"}];
